CCSDS_OMM_VERS = 2.0
CREATION_DATE  = 
ORIGINATOR     = 

OBJECT_NAME    = SL-16 R/B
OBJECT_ID      = 1998-043G
CENTER_NAME    = EARTH
REF_FRAME      = TEME
TIME_SYSTEM    = UTC
MEAN_ELEMENT_THEORY = SGP/SGP4

EPOCH          = 2025-12-06T03:11:08.831904
MEAN_MOTION    = 14.26022980
ECCENTRICITY   = .00088792
INCLINATION    = 98.8114
RA_OF_ASC_NODE = 287.9142
ARG_OF_PERICENTER = 288.1856
MEAN_ANOMALY   = 71.8356

EPHEMERIS_TYPE = 0
CLASSIFICATION_TYPE = U
NORAD_CAT_ID   = 25400
ELEMENT_SET_NO = 999
REV_AT_EPOCH   = 42565
BSTAR          = .81877273E-4
MEAN_MOTION_DOT = .15E-5
MEAN_MOTION_DDOT = 0

CCSDS_OMM_VERS = 2.0
CREATION_DATE  = 
ORIGINATOR     = 

OBJECT_NAME    = SL-16 R/B
OBJECT_ID      = 1998-045B
CENTER_NAME    = EARTH
REF_FRAME      = TEME
TIME_SYSTEM    = UTC
MEAN_ELEMENT_THEORY = SGP/SGP4

EPOCH          = 2025-12-06T03:00:10.895040
MEAN_MOTION    = 14.16175943
ECCENTRICITY   = .00072877
INCLINATION    = 71.0125
RA_OF_ASC_NODE = 18.3374
ARG_OF_PERICENTER = 187.7727
MEAN_ANOMALY   = 172.3285

EPHEMERIS_TYPE = 0
CLASSIFICATION_TYPE = U
NORAD_CAT_ID   = 25407
ELEMENT_SET_NO = 999
REV_AT_EPOCH   = 41385
BSTAR          = .20279344E-4
MEAN_MOTION_DOT = -.8E-7
MEAN_MOTION_DDOT = 0

CCSDS_OMM_VERS = 2.0
CREATION_DATE  = 
ORIGINATOR     = 

OBJECT_NAME    = ISS (ZARYA)
OBJECT_ID      = 1998-067A
CENTER_NAME    = EARTH
REF_FRAME      = TEME
TIME_SYSTEM    = UTC
MEAN_ELEMENT_THEORY = SGP/SGP4

EPOCH          = 2025-12-06T00:38:46.837536
MEAN_MOTION    = 15.49350538
ECCENTRICITY   = .00036145
INCLINATION    = 51.6296
RA_OF_ASC_NODE = 175.7148
ARG_OF_PERICENTER = 210.2448
MEAN_ANOMALY   = 149.8333

EPHEMERIS_TYPE = 0
CLASSIFICATION_TYPE = U
NORAD_CAT_ID   = 25544
ELEMENT_SET_NO = 999
REV_AT_EPOCH   = 54181
BSTAR          = .25885847E-3
MEAN_MOTION_DOT = .14013E-3
MEAN_MOTION_DDOT = 0

CCSDS_OMM_VERS = 2.0
CREATION_DATE  = 
ORIGINATOR     = 

OBJECT_NAME    = CZ-4B R/B
OBJECT_ID      = 1999-025C
CENTER_NAME    = EARTH
REF_FRAME      = TEME
TIME_SYSTEM    = UTC
MEAN_ELEMENT_THEORY = SGP/SGP4

EPOCH          = 2025-12-06T04:38:23.959104
MEAN_MOTION    = 14.18241179
ECCENTRICITY   = .00361429
INCLINATION    = 98.6777
RA_OF_ASC_NODE = 21.6195
ARG_OF_PERICENTER = 253.3373
MEAN_ANOMALY   = 194.5870

EPHEMERIS_TYPE = 0
CLASSIFICATION_TYPE = U
NORAD_CAT_ID   = 25732
ELEMENT_SET_NO = 999
REV_AT_EPOCH   = 37491
BSTAR          = .99707906E-4
MEAN_MOTION_DOT = .163E-5
MEAN_MOTION_DDOT = 0

CCSDS_OMM_VERS = 2.0
CREATION_DATE  = 
ORIGINATOR     = 

OBJECT_NAME    = OKEAN-O
OBJECT_ID      = 1999-039A
CENTER_NAME    = EARTH
REF_FRAME      = TEME
TIME_SYSTEM    = UTC
MEAN_ELEMENT_THEORY = SGP/SGP4

EPOCH          = 2025-12-06T02:19:41.278656
MEAN_MOTION    = 14.80143227
ECCENTRICITY   = .0000782
INCLINATION    = 97.9611
RA_OF_ASC_NODE = 35.8558
ARG_OF_PERICENTER = 83.8841
MEAN_ANOMALY   = 276.2460

EPHEMERIS_TYPE = 0
CLASSIFICATION_TYPE = U
NORAD_CAT_ID   = 25860
ELEMENT_SET_NO = 999
REV_AT_EPOCH   = 42054
BSTAR          = .19292047E-3
MEAN_MOTION_DOT = .1412E-4
MEAN_MOTION_DDOT = 0

CCSDS_OMM_VERS = 2.0
CREATION_DATE  = 
ORIGINATOR     = 

OBJECT_NAME    = SL-16 R/B
OBJECT_ID      = 1999-039B
CENTER_NAME    = EARTH
REF_FRAME      = TEME
TIME_SYSTEM    = UTC
MEAN_ELEMENT_THEORY = SGP/SGP4

EPOCH          = 2025-12-06T02:21:48.043008
MEAN_MOTION    = 14.81571512
ECCENTRICITY   = .00144191
INCLINATION    = 98.0133
RA_OF_ASC_NODE = 34.2490
ARG_OF_PERICENTER = 196.4560
MEAN_ANOMALY   = 163.6186

EPHEMERIS_TYPE = 0
CLASSIFICATION_TYPE = U
NORAD_CAT_ID   = 25861
ELEMENT_SET_NO = 999
REV_AT_EPOCH   = 42300
BSTAR          = .16025726E-3
MEAN_MOTION_DOT = .1206E-4
MEAN_MOTION_DDOT = 0

CCSDS_OMM_VERS = 2.0
CREATION_DATE  = 
ORIGINATOR     = 

OBJECT_NAME    = DELTA 2 R/B
OBJECT_ID      = 1999-041E
CENTER_NAME    = EARTH
REF_FRAME      = TEME
TIME_SYSTEM    = UTC
MEAN_ELEMENT_THEORY = SGP/SGP4

EPOCH          = 2025-12-06T04:46:30.350496
MEAN_MOTION    = 14.11375825
ECCENTRICITY   = .05047731
INCLINATION    = 51.7622
RA_OF_ASC_NODE = 314.5559
ARG_OF_PERICENTER = 72.4901
MEAN_ANOMALY   = 293.0527

EPHEMERIS_TYPE = 0
CLASSIFICATION_TYPE = U
NORAD_CAT_ID   = 25876
ELEMENT_SET_NO = 999
REV_AT_EPOCH   = 34982
BSTAR          = .37395564E-3
MEAN_MOTION_DOT = .208E-4
MEAN_MOTION_DDOT = 0

CCSDS_OMM_VERS = 2.0
CREATION_DATE  = 
ORIGINATOR     = 

OBJECT_NAME    = HELIOS 1B
OBJECT_ID      = 1999-064A
CENTER_NAME    = EARTH
REF_FRAME      = TEME
TIME_SYSTEM    = UTC
MEAN_ELEMENT_THEORY = SGP/SGP4

EPOCH          = 2025-12-06T03:25:46.823520
MEAN_MOTION    = 14.87240195
ECCENTRICITY   = .00020652
INCLINATION    = 98.1756
RA_OF_ASC_NODE = 234.6128
ARG_OF_PERICENTER = 51.8356
MEAN_ANOMALY   = 308.3045

EPHEMERIS_TYPE = 0
CLASSIFICATION_TYPE = U
NORAD_CAT_ID   = 25977
ELEMENT_SET_NO = 999
REV_AT_EPOCH   = 67135
BSTAR          = .41932306E-3
MEAN_MOTION_DOT = .372E-4
MEAN_MOTION_DDOT = 0

CCSDS_OMM_VERS = 2.0
CREATION_DATE  = 
ORIGINATOR     = 

OBJECT_NAME    = TERRA
OBJECT_ID      = 1999-068A
CENTER_NAME    = EARTH
REF_FRAME      = TEME
TIME_SYSTEM    = UTC
MEAN_ELEMENT_THEORY = SGP/SGP4

EPOCH          = 2025-12-06T07:06:33.235200
MEAN_MOTION    = 14.60941687
ECCENTRICITY   = .00034881
INCLINATION    = 97.9757
RA_OF_ASC_NODE = 32.2169
ARG_OF_PERICENTER = 110.7977
MEAN_ANOMALY   = 311.6416

EPHEMERIS_TYPE = 0
CLASSIFICATION_TYPE = U
NORAD_CAT_ID   = 25994
ELEMENT_SET_NO = 999
REV_AT_EPOCH   = 38144
BSTAR          = .2242901E-3
MEAN_MOTION_DOT = .1054E-4
MEAN_MOTION_DDOT = 0

CCSDS_OMM_VERS = 2.0
CREATION_DATE  = 
ORIGINATOR     = 

OBJECT_NAME    = SL-16 R/B
OBJECT_ID      = 2000-006B
CENTER_NAME    = EARTH
REF_FRAME      = TEME
TIME_SYSTEM    = UTC
MEAN_ELEMENT_THEORY = SGP/SGP4

EPOCH          = 2025-12-06T02:47:26.015712
MEAN_MOTION    = 14.15809464
ECCENTRICITY   = .0018151
INCLINATION    = 71.0030
RA_OF_ASC_NODE = 294.5839
ARG_OF_PERICENTER = 317.8270
MEAN_ANOMALY   = 42.1455

EPHEMERIS_TYPE = 0
CLASSIFICATION_TYPE = U
NORAD_CAT_ID   = 26070
ELEMENT_SET_NO = 999
REV_AT_EPOCH   = 33531
BSTAR          = .1288221E-3
MEAN_MOTION_DOT = .206E-5
MEAN_MOTION_DDOT = 0

CCSDS_OMM_VERS = 2.0
CREATION_DATE  = 
ORIGINATOR     = 

OBJECT_NAME    = TITAN 4B R/B
OBJECT_ID      = 2000-047B
CENTER_NAME    = EARTH
REF_FRAME      = TEME
TIME_SYSTEM    = UTC
MEAN_ELEMENT_THEORY = SGP/SGP4

EPOCH          = 2025-12-06T07:29:59.999136
MEAN_MOTION    = 15.08709189
ECCENTRICITY   = .00394733
INCLINATION    = 67.9903
RA_OF_ASC_NODE = 302.9044
ARG_OF_PERICENTER = 152.4045
MEAN_ANOMALY   = 207.9211

EPHEMERIS_TYPE = 0
CLASSIFICATION_TYPE = U
NORAD_CAT_ID   = 26474
ELEMENT_SET_NO = 999
REV_AT_EPOCH   = 37882
BSTAR          = .42580996E-3
MEAN_MOTION_DOT = .6687E-4
MEAN_MOTION_DDOT = 0

CCSDS_OMM_VERS = 2.0
CREATION_DATE  = 
ORIGINATOR     = 

OBJECT_NAME    = ENVISAT
OBJECT_ID      = 2002-009A
CENTER_NAME    = EARTH
REF_FRAME      = TEME
TIME_SYSTEM    = UTC
MEAN_ELEMENT_THEORY = SGP/SGP4

EPOCH          = 2025-12-06T07:37:43.972320
MEAN_MOTION    = 14.38995680
ECCENTRICITY   = .00011524
INCLINATION    = 98.3590
RA_OF_ASC_NODE = 291.2215
ARG_OF_PERICENTER = 81.8382
MEAN_ANOMALY   = 72.5497

EPHEMERIS_TYPE = 0
CLASSIFICATION_TYPE = U
NORAD_CAT_ID   = 27386
ELEMENT_SET_NO = 999
REV_AT_EPOCH   = 24574
BSTAR          = .11108351E-3
MEAN_MOTION_DOT = .3E-5
MEAN_MOTION_DDOT = 0

