SL-16 R/B               
1 25400U 98043G   25340.13274111  .00000150  00000+0  81877-4 0  9999
2 25400  98.8114 287.9142 0008879 288.1856  71.8356 14.26022980425653
SL-16 R/B               
1 25407U 98045B   25340.12512610 -.00000008  00000+0  20279-4 0  9998
2 25407  71.0125  18.3374 0007287 187.7727 172.3285 14.16175943413855
ISS (ZARYA)             
1 25544U 98067A   25340.02693099  .00014013  00000+0  25886-3 0  9992
2 25544  51.6296 175.7148 0003614 210.2448 149.8333 15.49350538541812
CZ-4B R/B               
1 25732U 99025C   25340.19333286  .00000163  00000+0  99708-4 0  9999
2 25732  98.6777  21.6195 0036142 253.3373 194.5870 14.18241179374917
OKEAN-O                 
1 25860U 99039A   25340.09700554  .00001412  00000+0  19292-3 0  9998
2 25860  97.9611  35.8558 0000782  83.8841 276.2460 14.80143227420543
SL-16 R/B               
1 25861U 99039B   25340.09847272  .00001206  00000+0  16026-3 0  9991
2 25861  98.0133  34.2490 0014419 196.4560 163.6186 14.81571512423005
DELTA 2 R/B             
1 25876U 99041E   25340.19896239  .00002080  00000+0  37396-3 0  9992
2 25876  51.7622 314.5559 0504773  72.4901 293.0527 14.11375825349825
HELIOS 1B               
1 25977U 99064A   25340.14290305  .00003720  00000+0  41932-3 0  9999
2 25977  98.1756 234.6128 0002065  51.8356 308.3045 14.87240195671351
TERRA                   
1 25994U 99068A   25340.29621800  .00001054  00000+0  22429-3 0  9994
2 25994  97.9757  32.2169 0003488 110.7977 311.6416 14.60941687381441
SL-16 R/B               
1 26070U 00006B   25340.11627333  .00000206  00000+0  12882-3 0  9992
2 26070  71.0030 294.5839 0018151 317.8270  42.1455 14.15809464335310
TITAN 4B R/B            
1 26474U 00047B   25340.31249999  .00006687  00000+0  42581-3 0  9993
2 26474  67.9903 302.9044 0039473 152.4045 207.9211 15.08709189378826
ENVISAT                 
1 27386U 02009A   25340.31787005  .00000300  00000+0  11108-3 0  9998
2 27386  98.3590 291.2215 0001152  81.8382  72.5497 14.38995680245742
